RS57S MONITOR-4
1 57182U 23091S   26059.84368649  .00012492  00000+0  49362-3 0  9992
2 57182  97.5223 122.5736 0013681 120.2569 240.0024 15.25556738147767
RS-38S
1 57189U 23091Z   26059.88349648  .00018728  00000+0  60043-3 0  9998
2 57189  97.5223 127.4299 0009086  99.1025 261.1245 15.32359602148081
RS49S NANOZOND-1
1 57190U 23091AA  26059.83717542  .00176278  00000+0  13944-2 0  9999
2 57190  97.5106 139.3978 0000854  94.0874 266.0485 15.70810993148884
RS27S UTMN-2
1 57203U 23091AP  26059.86988773  .00014954  00000+0  52972-3 0  9990
2 57203  97.5225 125.7525 0009940 103.6117 256.6230 15.29169146147973
METEOR-M2-4
1 59051U 24039A   26059.85630050  .00000031  00000+0  33638-4 0  9997
2 59051  98.6889  20.5894 0007979 118.6440 241.5541 14.22415520103860
SONATE-2
1 59112U 24043Q   26059.36847954  .00035989  00000+0  63001-3 0  9995
2 59112  97.5379 203.8563 0007828 239.5954 120.4524 15.50499511110986
MO-122
1 60209U 24125G   26059.55123913  .00042325  00000+0  68476-3 0  9991
2 60209  97.2473 275.3043 0011198 258.8513 101.1482 15.52643878 92655
GRBBeta
1 60237U 24128C   26059.80842647  .00005977  00000+0  41388-3 0  9990
2 60237  61.9885 236.2546 0052314 112.4585 248.2059 15.05655389 89943
Curium One
1 60242U 24128H   26059.81763226  .00011583  00000+0  68790-3 0  9998
2 60242  61.9773 229.0807 0052122 109.3574 251.3166 15.10584119 90073
ROBUSTA-3A
1 60243U 24128J   26059.85697973  .00008868  00000+0  54073-3 0  9999
2 60243  61.9848 230.8383 0052717 106.7025 253.9865 15.09842239 90058
CatSat
1 60246U 24125J   26059.83314177  .00045155  00000+0  85767-3 0  9993
2 60246  97.2228 271.7361 0027674 221.2855 138.6304 15.47719487 90577
ARTIC WX
1 60543U 24149CD  26059.74986507  .00001147  00000+0  12513-3 0  9993
2 60543  97.6897 133.2716 0003606 104.7933 255.3685 14.89796379 83155
ARCTICSAT 1
1 61762U 24199AD  26059.80622527  .00093888  00000+0  99796-3 0  9999
2 61762  97.3118 297.8057 0003928 305.2349  54.8542 15.63729527121008
HYPERVIEW-1G (RS66S)
1 61772U 24199AP  26059.82490979  .00064551  00000+0  90228-3 0  9992
2 61772  97.3115 295.6737 0007499 325.3177  34.7588 15.56605024117724
AO-123
1 61781U 24199AY  26059.80953431  .00009966  00000+0  30587-3 0  9998
2 61781  97.3177 289.4779 0013726 344.3737  15.7080 15.33847353117300
SAMSAT-IONOSPHERE
1 61784U 24199BB  26059.82112681  .00038780  00000+0  72185-3 0  9993
2 61784  97.3139 293.7658 0009509 331.4798  28.5931 15.48715099120749
CROCUBE
1 62394U 24247T   26059.50967178  .00033492  00000+0  81140-3 0  9995
2 62394  44.9730 148.5367 0003320 314.6499  45.4118 15.40556373 66544
JINJUSat 1B
1 63210U 25052A   26059.70354025  .00017673  00000+0  61424-3 0  9997
2 63210  97.4139 316.5223 0005443 101.0560 259.1292 15.29784599 53498
NUSHSAT 1
1 63211U 25052B   26059.76198889  .00022044  00000+0  72757-3 0  9997
2 63211  97.4121 316.8399 0005349 102.6648 257.5192 15.31415220 53526
TEVEL2-4
1 63213U 25052D   26059.67284861  .00020832  00000+0  70825-3 0  9992
2 63213  97.4043 316.1259 0004330 112.3510 247.8190 15.30471958 53499
TEVEL2-5
1 63214U 25052E   26059.68311090  .00019362  00000+0  66091-3 0  9995
2 63214  97.4040 316.1106 0004329 112.4863 247.6836 15.30356367 53499
TEVEL2-6
1 63215U 25052F   26059.69269324  .00019587  00000+0  66939-3 0  9999
2 63215  97.4042 316.1066 0004426 113.4092 246.7614 15.30315452 53494
TEVEL2-1
1 63217U 25052H   26059.68850799  .00019206  00000+0  66473-3 0  9993
2 63217  97.4019 315.8431 0004222 122.2640 237.9010 15.29908075 53481
TEVEL2-3
1 63218U 25052J   26059.68629028  .00018858  00000+0  65210-3 0  9993
2 63218  97.4018 315.8515 0004148 123.2765 236.8873 15.29941875 53480
TEVEL2-2
1 63219U 25052K   26059.68917976  .00018371  00000+0  63603-3 0  9990
2 63219  97.4019 315.8444 0004062 124.1553 236.0073 15.29908867 53481
TEVEL2-9
1 63237U 25052AD  26059.66758446  .00017994  00000+0  65561-3 0  9998
2 63237  97.4081 315.4083 0006992 150.3535 209.8102 15.28226107 53435
TEVEL2-7
1 63238U 25052AE  26059.69063759  .00016842  00000+0  61775-3 0  9992
2 63238  97.4081 315.3862 0007210 150.7259 209.4386 15.28017541 53431
TEVEL2-8
1 63239U 25052AF  26059.69752858  .00017135  00000+0  62888-3 0  9990
2 63239  97.4084 315.3740 0007140 151.3619 208.8014 15.27995555 53439
HYDRA-W
1 63490U 25052BL  26059.66659572  .00155948  00000+0  19519-2 0  9992
2 63490  97.3960 320.4391 0008381 122.9461 237.2602 15.59230579 53786
HADES-ICM (SO-125)
1 63492U 25052BN  26059.69104140  .00119904  00000+0  18243-2 0  9998
2 63492  97.3980 319.8288 0007889 129.5780 230.6172 15.54076319 53746
PARUS-T2
1 64574U 25135AY  26059.89008159  .00004179  00000+0  38905-3 0  9992
2 64574  97.7612 175.8431 0001564  10.7732 349.3521 14.94827836 37745
BOTAN
1 65942U 98067XP  26059.33675453  .01546827  16907-2  16545-2 0  9995
2 65942  51.6100  98.7850 0008031  32.0409 328.1092 16.09764360 22111
CEVROSAT1
1 66309U 25248S   26059.81711022  .00004514  00000+0  22401-3 0  9994
2 66309  45.4060 342.2709 0002754 177.1565 182.9337 15.19142521 18027
SPIRONE
1 66657U 25274H   26059.77057777  .00003021  00000+0  29559-3 0  9997
2 66657  97.7435 350.6860 0013015  22.4456 337.7330 14.93002734 14046
K-HERO
1 66660U 25274L   26059.73977345  .00003117  00000+0  30119-3 0  9999
2 66660  97.7440 350.7339 0014860  25.6514 334.5440 14.93460459 14046
SNUGLITE-III DURI
1 66661U 25274M   26059.79915575  .00002563  00000+0  24801-3 0  9998
2 66661  97.7434 350.8065 0015475  25.9660 334.2333 14.93553903 14051
SilverSat
1 66909U 98067XV  26059.54568839  .00150783  00000+0  12814-2 0  9991
2 66909  51.6259 111.5898 0005257  25.0248 335.1003 15.68604057 13756
GALAPAGOS
1 67279U 25313AH  26059.79764048  .00008181  00000+0  36885-3 0  9992
2 67279  97.4021 136.1986 0015027  30.1361 330.0736 15.21185234  9462
Lobachevsky
1 67282U 25313AL  26059.76861931  .00006820  00000+0  30317-3 0  9994
2 67282  97.4022 136.2248 0011341  27.8141 332.3699 15.21777004  9468
SAKHACUBE-CHOLBON
1 67290U 25313AU  26059.81178699  .00011427  00000+0  49307-3 0  9999
2 67290  97.4030 136.3335 0009884  25.7217 334.4510 15.22647810  9472
QMR-KWT
1 67291U 25313AV  26059.80293071  .00015560  00000+0  66039-3 0  9994
2 67291  97.4030 136.3448 0009495  24.7595 335.4095 15.23139790  9477
Delfi-N3xt
1 39428U 13066N   26059.83710976  .00007571  00000-0  68514-3 0  9992
2 39428  97.8347 340.3755 0075717 206.0378 153.7025 14.93503590658445
RSP-03
1 65732U 98067XL  26047.27951905  .10199253  12460-4  79249-3 0  9991
2 65732  51.6061 154.7117 0006246 319.9198  40.1367 16.39378610 23558
IO-86
1 40931U          25360.30710720  .00000000  00000-0  12800-3 0    00
2 40931   6.0006 332.5373 0012733 338.8432   8.1437 14.79075515    01
PARUS-T1
1 98707U 25009N   25063.20000000  .00000000  00000-0  00000-0 0    08
2 98707  97.4430 144.9801 0003811 149.1702 136.3402 15.16239457    06
T.MicroSat-1
1 98515U 25276Y   25347.12519372 +.00009703 +00000+0 +47621-3 0 00218
2 98515  97.4377  58.8963 0002080  99.7173 260.4296 15.18293117002180
CORIOLIS
1 27640U 03001A   26059.96177019  .00000168  00000+0  99670-4 0  9994
2 27640  98.7160  68.4871 0014368 160.6179 199.5546 14.19908695198861
